HST                     
1 20580U 90037B   26068.15977042  .00009063  00000+0  30023-3 0  9999
2 20580  28.4717  43.6133 0001837 120.9992 239.0785 15.29473555773239
STARLINK-2543           
1 48278U 21036C   26068.28605592  .00013779  00000+0  47597-3 0  9991
2 48278  53.1607  26.2778 0001404 110.4197 249.6954 15.30234914269050
